[{"OBJECT_NAME":"LEMUR-2-NIMBUS2000","OBJECT_ID":"2024-022A","EPOCH":"2026-03-09T13:28:11.970624","MEAN_MOTION":15.36761015,"ECCENTRICITY":0.00106365,"INCLINATION":97.4231,"RA_OF_ASC_NODE":277.4737,"ARG_OF_PERICENTER":113.743,"MEAN_ANOMALY":246.4931,"EPHEMERIS_TYPE":0,"CLASSIFICATION_TYPE":"U","NORAD_CAT_ID":58899,"ELEMENT_SET_NO":999,"REV_AT_EPOCH":11695,"BSTAR":0.0005061356,"MEAN_MOTION_DOT":0.00018151,"MEAN_MOTION_DDOT":0},{"OBJECT_NAME":"R5-S4","OBJECT_ID":"2024-125D","EPOCH":"2026-03-09T13:51:31.394016","MEAN_MOTION":15.40102562,"ECCENTRICITY":0.0016308,"INCLINATION":97.252,"RA_OF_ASC_NODE":280.5395,"ARG_OF_PERICENTER":228.9826,"MEAN_ANOMALY":131.0011,"EPHEMERIS_TYPE":0,"CLASSIFICATION_TYPE":"U","NORAD_CAT_ID":60206,"ELEMENT_SET_NO":999,"REV_AT_EPOCH":9378,"BSTAR":0.00042135,"MEAN_MOTION_DOT":0.00016878,"MEAN_MOTION_DDOT":0}]
