LEMUR-2-NIMBUS2000      
1 58899U 24022A   26068.56124966  .00018151  00000+0  50614-3 0  9994
2 58899  97.4231 277.4737 0010636 113.7430 246.4931 15.36761015116955
R5-S4                   
1 60206U 24125D   26068.57744669  .00016878  00000+0  42135-3 0  9995
2 60206  97.2520 280.5395 0016308 228.9826 131.0011 15.40102562 93788
